{"fetched_at":"2026-07-08T07:03:33.083Z","source":"https://celestrak.org/NORAD/elements/gp.php?GROUP=kuiper&FORMAT=JSON","constellation":"kuiper","records":[{"OBJECT_NAME":"KUIPER-00517","OBJECT_ID":"2026-140J","EPOCH":"2026-07-07T15:37:53.092416","CLASSIFICATION_TYPE":"U","MEAN_MOTION":15.38705874,"ECCENTRICITY":0.0010749,"INCLINATION":51.8768,"RA_OF_ASC_NODE":299.6234,"ARG_OF_PERICENTER":262.342,"MEAN_ANOMALY":97.6347,"EPHEMERIS_TYPE":0,"NORAD_CAT_ID":69600,"ELEMENT_SET_NO":999,"REV_AT_EPOCH":438,"BSTAR":0.00077831,"MEAN_MOTION_DOT":0.00030016,"MEAN_MOTION_DDOT":0},{"OBJECT_NAME":"KUIPER-00520","OBJECT_ID":"2026-140K","EPOCH":"2026-07-07T16:04:42.384000","CLASSIFICATION_TYPE":"U","MEAN_MOTION":15.37515622,"ECCENTRICITY":0.0006367,"INCLINATION":51.8815,"RA_OF_ASC_NODE":299.7542,"ARG_OF_PERICENTER":328.762,"MEAN_ANOMALY":31.2988,"EPHEMERIS_TYPE":0,"NORAD_CAT_ID":69601,"ELEMENT_SET_NO":999,"REV_AT_EPOCH":438,"BSTAR":0.00028341,"MEAN_MOTION_DOT":0.0001022,"MEAN_MOTION_DDOT":0},{"OBJECT_NAME":"KUIPER-00522","OBJECT_ID":"2026-140L","EPOCH":"2026-07-07T10:51:25.939584","CLASSIFICATION_TYPE":"U","MEAN_MOTION":15.3850984,"ECCENTRICITY":0.00132746,"INCLINATION":51.8789,"RA_OF_ASC_NODE":300.5443,"ARG_OF_PERICENTER":236.5674,"MEAN_ANOMALY":123.4044,"EPHEMERIS_TYPE":0,"NORAD_CAT_ID":69602,"ELEMENT_SET_NO":999,"REV_AT_EPOCH":435,"BSTAR":0.00033628295,"MEAN_MOTION_DOT":0.00012639,"MEAN_MOTION_DDOT":0},{"OBJECT_NAME":"KUIPER-00528","OBJECT_ID":"2026-140M","EPOCH":"2026-07-07T11:26:41.658720","CLASSIFICATION_TYPE":"U","MEAN_MOTION":15.37370231,"ECCENTRICITY":0.00053455,"INCLINATION":51.878,"RA_OF_ASC_NODE":300.6994,"ARG_OF_PERICENTER":334.1966,"MEAN_ANOMALY":25.8753,"EPHEMERIS_TYPE":0,"NORAD_CAT_ID":69603,"ELEMENT_SET_NO":999,"REV_AT_EPOCH":435,"BSTAR":0.00043720278,"MEAN_MOTION_DOT":0.00015913,"MEAN_MOTION_DDOT":0},{"OBJECT_NAME":"KUIPER-00532","OBJECT_ID":"2026-140N","EPOCH":"2026-07-07T17:51:31.893696","CLASSIFICATION_TYPE":"U","MEAN_MOTION":15.36648603,"ECCENTRICITY":0.0005903,"INCLINATION":51.8789,"RA_OF_ASC_NODE":299.4908,"ARG_OF_PERICENTER":4.727,"MEAN_ANOMALY":355.3771,"EPHEMERIS_TYPE":0,"NORAD_CAT_ID":69604,"ELEMENT_SET_NO":999,"REV_AT_EPOCH":439,"BSTAR":0.00054736,"MEAN_MOTION_DOT":0.00019565,"MEAN_MOTION_DDOT":0},{"OBJECT_NAME":"KUIPER-00533","OBJECT_ID":"2026-140P","EPOCH":"2026-07-07T15:50:11.291424","CLASSIFICATION_TYPE":"U","MEAN_MOTION":15.38136241,"ECCENTRICITY":0.0007756,"INCLINATION":51.8786,"RA_OF_ASC_NODE":299.6805,"ARG_OF_PERICENTER":298.501,"MEAN_ANOMALY":61.5196,"EPHEMERIS_TYPE":0,"NORAD_CAT_ID":69605,"ELEMENT_SET_NO":999,"REV_AT_EPOCH":438,"BSTAR":0.00033333,"MEAN_MOTION_DOT":0.00012348,"MEAN_MOTION_DDOT":0},{"OBJECT_NAME":"KUIPER-00534","OBJECT_ID":"2026-140Q","EPOCH":"2026-07-07T15:25:11.443584","CLASSIFICATION_TYPE":"U","MEAN_MOTION":15.38647665,"ECCENTRICITY":0.0013598,"INCLINATION":51.8817,"RA_OF_ASC_NODE":299.5735,"ARG_OF_PERICENTER":238.1693,"MEAN_ANOMALY":121.7971,"EPHEMERIS_TYPE":0,"NORAD_CAT_ID":69606,"ELEMENT_SET_NO":999,"REV_AT_EPOCH":438,"BSTAR":0.00032496,"MEAN_MOTION_DOT":0.00012257,"MEAN_MOTION_DDOT":0},{"OBJECT_NAME":"KUIPER-00537","OBJECT_ID":"2026-140R","EPOCH":"2026-07-07T18:00:02.998944","CLASSIFICATION_TYPE":"U","MEAN_MOTION":15.34329341,"ECCENTRICITY":0.001042,"INCLINATION":51.8813,"RA_OF_ASC_NODE":299.6126,"ARG_OF_PERICENTER":31.2655,"MEAN_ANOMALY":291.3626,"EPHEMERIS_TYPE":0,"NORAD_CAT_ID":69607,"ELEMENT_SET_NO":999,"REV_AT_EPOCH":406,"BSTAR":0.0015875,"MEAN_MOTION_DOT":0.00053654,"MEAN_MOTION_DDOT":0},{"OBJECT_NAME":"KUIPER-00538","OBJECT_ID":"2026-140S","EPOCH":"2026-07-07T16:01:43.657824","CLASSIFICATION_TYPE":"U","MEAN_MOTION":15.37600412,"ECCENTRICITY":0.0006279,"INCLINATION":51.8807,"RA_OF_ASC_NODE":299.738,"ARG_OF_PERICENTER":314.2186,"MEAN_ANOMALY":45.8284,"EPHEMERIS_TYPE":0,"NORAD_CAT_ID":69608,"ELEMENT_SET_NO":999,"REV_AT_EPOCH":438,"BSTAR":0.00033289,"MEAN_MOTION_DOT":0.0001211,"MEAN_MOTION_DDOT":0},{"OBJECT_NAME":"KUIPER-00540","OBJECT_ID":"2026-140T","EPOCH":"2026-07-07T17:47:08.589696","CLASSIFICATION_TYPE":"U","MEAN_MOTION":15.36845449,"ECCENTRICITY":0.0006649,"INCLINATION":51.8811,"RA_OF_ASC_NODE":299.4785,"ARG_OF_PERICENTER":355.6578,"MEAN_ANOMALY":4.4349,"EPHEMERIS_TYPE":0,"NORAD_CAT_ID":69609,"ELEMENT_SET_NO":999,"REV_AT_EPOCH":439,"BSTAR":0.00047593,"MEAN_MOTION_DOT":0.00017067,"MEAN_MOTION_DDOT":0},{"OBJECT_NAME":"KUIPER-00541","OBJECT_ID":"2026-140U","EPOCH":"2026-07-07T15:50:40.559424","CLASSIFICATION_TYPE":"U","MEAN_MOTION":15.38289836,"ECCENTRICITY":0.0006939,"INCLINATION":51.8808,"RA_OF_ASC_NODE":299.691,"ARG_OF_PERICENTER":293.7405,"MEAN_ANOMALY":66.2854,"EPHEMERIS_TYPE":0,"NORAD_CAT_ID":69610,"ELEMENT_SET_NO":999,"REV_AT_EPOCH":438,"BSTAR":0.00047753,"MEAN_MOTION_DOT":0.00017963,"MEAN_MOTION_DDOT":0},{"OBJECT_NAME":"KUIPER-00542","OBJECT_ID":"2026-140V","EPOCH":"2026-07-07T15:48:14.933088","CLASSIFICATION_TYPE":"U","MEAN_MOTION":15.38266363,"ECCENTRICITY":0.0007922,"INCLINATION":51.8785,"RA_OF_ASC_NODE":299.672,"ARG_OF_PERICENTER":275.3242,"MEAN_ANOMALY":84.6841,"EPHEMERIS_TYPE":0,"NORAD_CAT_ID":69611,"ELEMENT_SET_NO":999,"REV_AT_EPOCH":438,"BSTAR":0.00039797,"MEAN_MOTION_DOT":0.00014889,"MEAN_MOTION_DDOT":0},{"OBJECT_NAME":"KUIPER-00543","OBJECT_ID":"2026-140W","EPOCH":"2026-07-07T11:38:13.649280","CLASSIFICATION_TYPE":"U","MEAN_MOTION":15.36715957,"ECCENTRICITY":0.00075126,"INCLINATION":51.8788,"RA_OF_ASC_NODE":300.7497,"ARG_OF_PERICENTER":11.3158,"MEAN_ANOMALY":348.7996,"EPHEMERIS_TYPE":0,"NORAD_CAT_ID":69612,"ELEMENT_SET_NO":999,"REV_AT_EPOCH":435,"BSTAR":0.00046478378,"MEAN_MOTION_DOT":0.00016589,"MEAN_MOTION_DDOT":0},{"OBJECT_NAME":"KUIPER-00544","OBJECT_ID":"2026-140X","EPOCH":"2026-07-07T15:53:42.383904","CLASSIFICATION_TYPE":"U","MEAN_MOTION":15.38065455,"ECCENTRICITY":0.0006525,"INCLINATION":51.8778,"RA_OF_ASC_NODE":299.6956,"ARG_OF_PERICENTER":290.5853,"MEAN_ANOMALY":69.4434,"EPHEMERIS_TYPE":0,"NORAD_CAT_ID":69613,"ELEMENT_SET_NO":999,"REV_AT_EPOCH":438,"BSTAR":0.00090711,"MEAN_MOTION_DOT":0.00034299,"MEAN_MOTION_DDOT":0},{"OBJECT_NAME":"KUIPER-00546","OBJECT_ID":"2026-140Y","EPOCH":"2026-07-07T15:26:48.016320","CLASSIFICATION_TYPE":"U","MEAN_MOTION":15.38796022,"ECCENTRICITY":0.0014616,"INCLINATION":51.8788,"RA_OF_ASC_NODE":299.5768,"ARG_OF_PERICENTER":235.8456,"MEAN_ANOMALY":124.1146,"EPHEMERIS_TYPE":0,"NORAD_CAT_ID":69614,"ELEMENT_SET_NO":999,"REV_AT_EPOCH":438,"BSTAR":0.0003377,"MEAN_MOTION_DOT":0.00012823,"MEAN_MOTION_DDOT":0},{"OBJECT_NAME":"KUIPER-00547","OBJECT_ID":"2026-140Z","EPOCH":"2026-07-07T15:43:26.293152","CLASSIFICATION_TYPE":"U","MEAN_MOTION":15.37756625,"ECCENTRICITY":0.0010943,"INCLINATION":51.8821,"RA_OF_ASC_NODE":299.6577,"ARG_OF_PERICENTER":260.1488,"MEAN_ANOMALY":99.8264,"EPHEMERIS_TYPE":0,"NORAD_CAT_ID":69615,"ELEMENT_SET_NO":999,"REV_AT_EPOCH":438,"BSTAR":0.00040392,"MEAN_MOTION_DOT":0.00014877,"MEAN_MOTION_DDOT":0}]}
